{
    "links": {
        "self": "http://www.neowsapp.com/rest/v1/neo/3802036?api_key=iIulBulltgU6a56xZRHN4H3l9WmuAYTsLGpBGhQ2"
    },
    "id": "3802036",
    "neo_reference_id": "3802036",
    "name": "(2018 FB3)",
    "designation": "2018 FB3",
    "nasa_jpl_url": "http://ssd.jpl.nasa.gov/sbdb.cgi?sstr=3802036",
    "absolute_magnitude_h": 25.2,
    "estimated_diameter": {
        "kilometers": {
            "estimated_diameter_min": 0.0242412481,
            "estimated_diameter_max": 0.0542050786
        },
        "meters": {
            "estimated_diameter_min": 24.2412481101,
            "estimated_diameter_max": 54.2050786336
        },
        "miles": {
            "estimated_diameter_min": 0.0150628086,
            "estimated_diameter_max": 0.0336814639
        },
        "feet": {
            "estimated_diameter_min": 79.5316564495,
            "estimated_diameter_max": 177.8381901842
        }
    },
    "is_potentially_hazardous_asteroid": false,
    "close_approach_data": [
        {
            "close_approach_date": "2018-03-25",
            "close_approach_date_full": "2018-Mar-25 01:18",
            "epoch_date_close_approach": 1521940680000,
            "relative_velocity": {
                "kilometers_per_second": "15.8632847344",
                "kilometers_per_hour": "57107.825043777",
                "miles_per_hour": "35484.5816223402"
            },
            "miss_distance": {
                "astronomical": "0.0238236554",
                "lunar": "9.2674019506",
                "kilometers": "3563968.103453998",
                "miles": "2214547.0895732524"
            },
            "orbiting_body": "Earth"
        }
    ],
    "orbital_data": {
        "orbit_id": "1",
        "orbit_determination_date": "2018-03-21 10:42:05",
        "first_observation_date": "2018-03-10",
        "last_observation_date": "2018-03-21",
        "data_arc_in_days": 11,
        "observations_used": 21,
        "orbit_uncertainty": "8",
        "minimum_orbit_intersection": ".0232212",
        "jupiter_tisserand_invariant": "3.175",
        "epoch_osculation": "2458192.5",
        "eccentricity": ".664130867365701",
        "semi_major_axis": "2.406173663462482",
        "inclination": "5.084960300642639",
        "ascending_node_longitude": "348.7330749785883",
        "orbital_period": "1363.291981449678",
        "perihelion_distance": ".8081594613146373",
        "perihelion_argument": "253.8239615002509",
        "aphelion_distance": "4.004187865610326",
        "perihelion_time": "2458241.494947274271",
        "mean_anomaly": "347.0620664841132",
        "mean_motion": ".2640666892335039",
        "equinox": "J2000",
        "orbit_class": {
            "orbit_class_type": "APO",
            "orbit_class_description": "Near-Earth asteroid orbits which cross the Earth’s orbit similar to that of 1862 Apollo",
            "orbit_class_range": "a (semi-major axis) > 1.0 AU; q (perihelion) < 1.017 AU"
        }
    },
    "is_sentry_object": false
}